*******************************************************************************
Ephemeris / WWW_USER Mon Mar 24 08:39:08 2025 Pasadena, USA      / Horizons    
*******************************************************************************
Target body name: (2019 AU)                       {source: JPL#11}
Center body name: Earth (399)                     {source: DE441}
Center-site name: Mauna Kea
*******************************************************************************
Start time      : A.D. 2018-Sep-03 04:45:00.0000 UT      
Stop  time      : A.D. 2018-Sep-03 15:57:00.0000 UT      
Step-size       : 1 minutes
*******************************************************************************
Target pole/equ : undefined
Target radii    : undefined                                                    
Center geodetic : 204.5278, 19.8260847, 4.21024   {E-lon(deg),Lat(deg),Alt(km)}
Center cylindric: 204.5278, 6006.35451, 2151.0229 {E-lon(deg),Dxy(km),Dz(km)}
Center pole/equ : ITRF93                          {East-longitude positive}
Center radii    : 6378.137, 6378.137, 6356.752 km {Equator_a, b, pole_c}       
Target primary  : Sun
Vis. interferer : MOON (R_eq= 1737.400) km        {source: DE441}
Rel. light bend : Sun                             {source: DE441}
Rel. lght bnd GM: 1.3271E+11 km^3/s^2                                          
Small-body perts: Yes                             {source: SB441-N16}
Atmos refraction: NO (AIRLESS)
RA format       : HMS
Time format     : CAL 
Calendar mode   : Mixed Julian/Gregorian
RTS-only print  : NO       
EOP file        : eop.250321.p250617                                           
EOP coverage    : DATA-BASED 1962-JAN-20 TO 2025-MAR-21. PREDICTS-> 2025-JUN-16
Units conversion: 1 au= 149597870.700 km, c= 299792.458 km/s, 1 day= 86400.0 s 
Table cut-offs 1: Elevation (-90.0deg=NO ),Airmass (>38.000=NO), Daylight (YES)
Table cut-offs 2: Solar elongation (  0.0,180.0=NO ),Local Hour Angle( 0.0=NO )
Table cut-offs 3: RA/DEC angular rate (     0.0=NO )                           
*******************************************************************************
Initial IAU76/J2000 heliocentric ecliptic osculating elements (au, days, deg.):
  EPOCH=  2458490.5 ! 2019-Jan-07.00 (TDB)         Residual RMS= .17143        
   EC= .1028488096127525   QR= .9927870416208908   TP= 2458466.0562707144      
   OM= 109.6543146265929   W=  330.7265060973358   IN= 5.020660041219873       
  Equivalent ICRF heliocentric cartesian coordinates (au, au/d):
   X=-2.730606646751524E-01  Y= 8.866895536052930E-01  Z= 3.780071563225811E-01
  VX=-1.742089442644723E-02 VY=-4.449382429672076E-03 VZ=-2.237797348809624E-04
Asteroid physical parameters (km, seconds, rotational period in hours):        
   GM= n.a.                RAD= n.a.               ROTPER= n.a.                
   H= 26.7                 G= .150                 B-V= n.a.                   
                           ALBEDO= n.a.            STYP= n.a.                  
*******************************************************************************
 Date__(UT)__HR:MN     R.A._________(ICRF)_________DEC
******************************************************
$$SOE
 2018-Sep-03 12:57  m  01 15 46.418319 -32 03 17.06450
 2018-Sep-03 12:58  m  01 15 46.471679 -32 03 18.99475
 2018-Sep-03 12:59  m  01 15 46.525043 -32 03 20.92434
 2018-Sep-03 13:00  m  01 15 46.578410 -32 03 22.85328
 2018-Sep-03 13:01  m  01 15 46.631781 -32 03 24.78157
 2018-Sep-03 13:02  m  01 15 46.685156 -32 03 26.70922
 2018-Sep-03 13:03  m  01 15 46.738535 -32 03 28.63621
 2018-Sep-03 13:04  m  01 15 46.791920 -32 03 30.56256
 2018-Sep-03 13:05  m  01 15 46.845310 -32 03 32.48825
 2018-Sep-03 13:06  m  01 15 46.898706 -32 03 34.41330
 2018-Sep-03 13:07  m  01 15 46.952109 -32 03 36.33770
 2018-Sep-03 13:08  m  01 15 47.005518 -32 03 38.26145
 2018-Sep-03 13:09  m  01 15 47.058935 -32 03 40.18456
 2018-Sep-03 13:10  m  01 15 47.112359 -32 03 42.10701
 2018-Sep-03 13:11  m  01 15 47.165792 -32 03 44.02882
 2018-Sep-03 13:12  m  01 15 47.219233 -32 03 45.94999
 2018-Sep-03 13:13  m  01 15 47.272683 -32 03 47.87050
 2018-Sep-03 13:14  m  01 15 47.326142 -32 03 49.79037
 2018-Sep-03 13:15  m  01 15 47.379611 -32 03 51.70959
 2018-Sep-03 13:16  m  01 15 47.433090 -32 03 53.62816
 2018-Sep-03 13:17  m  01 15 47.486580 -32 03 55.54609
 2018-Sep-03 13:18  m  01 15 47.540081 -32 03 57.46338
 2018-Sep-03 13:19  m  01 15 47.593593 -32 03 59.38001
 2018-Sep-03 13:20  m  01 15 47.647117 -32 04 01.29601
 2018-Sep-03 13:21  m  01 15 47.700654 -32 04 03.21135
 2018-Sep-03 13:22  m  01 15 47.754204 -32 04 05.12606
 2018-Sep-03 13:23  m  01 15 47.807766 -32 04 07.04012
 2018-Sep-03 13:24  m  01 15 47.861343 -32 04 08.95353
 2018-Sep-03 13:25  m  01 15 47.914933 -32 04 10.86631
 2018-Sep-03 13:26  m  01 15 47.968538 -32 04 12.77844
 2018-Sep-03 13:27  m  01 15 48.022157 -32 04 14.68993
 2018-Sep-03 13:28  m  01 15 48.075792 -32 04 16.60077
 2018-Sep-03 13:29  m  01 15 48.129443 -32 04 18.51098
 2018-Sep-03 13:30  m  01 15 48.183110 -32 04 20.42054
 2018-Sep-03 13:31  m  01 15 48.236793 -32 04 22.32947
 2018-Sep-03 13:32  m  01 15 48.290494 -32 04 24.23775
 2018-Sep-03 13:33  m  01 15 48.344212 -32 04 26.14539
 2018-Sep-03 13:34  m  01 15 48.397947 -32 04 28.05240
 2018-Sep-03 13:35  m  01 15 48.451701 -32 04 29.95876
 2018-Sep-03 13:36  m  01 15 48.505474 -32 04 31.86449
 2018-Sep-03 13:37  m  01 15 48.559266 -32 04 33.76958
 2018-Sep-03 13:38  m  01 15 48.613077 -32 04 35.67404
 2018-Sep-03 13:39  m  01 15 48.666908 -32 04 37.57786
 2018-Sep-03 13:40  m  01 15 48.720760 -32 04 39.48104
 2018-Sep-03 13:41  m  01 15 48.774632 -32 04 41.38359
 2018-Sep-03 13:42  m  01 15 48.828526 -32 04 43.28550
 2018-Sep-03 13:43  m  01 15 48.882441 -32 04 45.18678
 2018-Sep-03 13:44  m  01 15 48.936378 -32 04 47.08742
 2018-Sep-03 13:45  m  01 15 48.990338 -32 04 48.98743
 2018-Sep-03 13:46  m  01 15 49.044321 -32 04 50.88682
 2018-Sep-03 13:47  m  01 15 49.098327 -32 04 52.78557
 2018-Sep-03 13:48  m  01 15 49.152356 -32 04 54.68368
 2018-Sep-03 13:49  m  01 15 49.206410 -32 04 56.58117
 2018-Sep-03 13:50  m  01 15 49.260488 -32 04 58.47803
 2018-Sep-03 13:51  m  01 15 49.314591 -32 05 00.37427
 2018-Sep-03 13:52  m  01 15 49.368720 -32 05 02.26987
 2018-Sep-03 13:53  m  01 15 49.422874 -32 05 04.16485
 2018-Sep-03 13:54  m  01 15 49.477054 -32 05 06.05920
 2018-Sep-03 13:55  m  01 15 49.531261 -32 05 07.95292
 2018-Sep-03 13:56  m  01 15 49.585496 -32 05 09.84602
 2018-Sep-03 13:57  m  01 15 49.639757 -32 05 11.73850
 2018-Sep-03 13:58  m  01 15 49.694046 -32 05 13.63035
 2018-Sep-03 13:59  m  01 15 49.748364 -32 05 15.52158
 2018-Sep-03 14:00  m  01 15 49.802710 -32 05 17.41219
 2018-Sep-03 14:01  m  01 15 49.857085 -32 05 19.30218
 2018-Sep-03 14:02  m  01 15 49.911490 -32 05 21.19155
 2018-Sep-03 14:03  m  01 15 49.965925 -32 05 23.08030
 2018-Sep-03 14:04  m  01 15 50.020390 -32 05 24.96843
 2018-Sep-03 14:05  m  01 15 50.074885 -32 05 26.85595
 2018-Sep-03 14:06  m  01 15 50.129412 -32 05 28.74285
 2018-Sep-03 14:07  m  01 15 50.183970 -32 05 30.62913
 2018-Sep-03 14:08  m  01 15 50.238560 -32 05 32.51480
 2018-Sep-03 14:09  m  01 15 50.293183 -32 05 34.39986
 2018-Sep-03 14:10  m  01 15 50.347838 -32 05 36.28430
 2018-Sep-03 14:11  m  01 15 50.402526 -32 05 38.16813
 2018-Sep-03 14:12  m  01 15 50.457248 -32 05 40.05135
 2018-Sep-03 14:13  m  01 15 50.512004 -32 05 41.93396
 2018-Sep-03 14:14  m  01 15 50.566794 -32 05 43.81597
 2018-Sep-03 14:15  m  01 15 50.621618 -32 05 45.69736
 2018-Sep-03 14:16  m  01 15 50.676478 -32 05 47.57815
 2018-Sep-03 14:17  m  01 15 50.731374 -32 05 49.45834
 2018-Sep-03 14:18  m  01 15 50.786305 -32 05 51.33791
 2018-Sep-03 14:19  m  01 15 50.841272 -32 05 53.21689
 2018-Sep-03 14:20  m  01 15 50.896277 -32 05 55.09526
 2018-Sep-03 14:21  m  01 15 50.951318 -32 05 56.97303
 2018-Sep-03 14:22  m  01 15 51.006397 -32 05 58.85021
 2018-Sep-03 14:23  m  01 15 51.061514 -32 06 00.72678
 2018-Sep-03 14:24  m  01 15 51.116669 -32 06 02.60275
 2018-Sep-03 14:25  m  01 15 51.171863 -32 06 04.47813
 2018-Sep-03 14:26  m  01 15 51.227096 -32 06 06.35291
 2018-Sep-03 14:27  m  01 15 51.282369 -32 06 08.22710
 2018-Sep-03 14:28  m  01 15 51.337681 -32 06 10.10069
 2018-Sep-03 14:29  m  01 15 51.393033 -32 06 11.97370
 2018-Sep-03 14:30  m  01 15 51.448427 -32 06 13.84611
 2018-Sep-03 14:31  m  01 15 51.503861 -32 06 15.71793
 2018-Sep-03 14:32  m  01 15 51.559337 -32 06 17.58916
 2018-Sep-03 14:33  m  01 15 51.614854 -32 06 19.45980
 2018-Sep-03 14:34  m  01 15 51.670414 -32 06 21.32986
 2018-Sep-03 14:35  m  01 15 51.726016 -32 06 23.19934
 2018-Sep-03 14:36  m  01 15 51.781661 -32 06 25.06823
 2018-Sep-03 14:37  m  01 15 51.837350 -32 06 26.93653
 2018-Sep-03 14:38  m  01 15 51.893082 -32 06 28.80426
 2018-Sep-03 14:39  m  01 15 51.948859 -32 06 30.67141
 2018-Sep-03 14:40  m  01 15 52.004680 -32 06 32.53797
 2018-Sep-03 14:41  m  01 15 52.060546 -32 06 34.40397
 2018-Sep-03 14:42  m  01 15 52.116457 -32 06 36.26938
 2018-Sep-03 14:43  m  01 15 52.172413 -32 06 38.13422
 2018-Sep-03 14:44  m  01 15 52.228416 -32 06 39.99849
 2018-Sep-03 14:45  m  01 15 52.284465 -32 06 41.86218
 2018-Sep-03 14:46  m  01 15 52.340561 -32 06 43.72531
 2018-Sep-03 14:47  m  01 15 52.396704 -32 06 45.58786
 2018-Sep-03 14:48  m  01 15 52.452895 -32 06 47.44985
 2018-Sep-03 14:49  m  01 15 52.509133 -32 06 49.31127
 2018-Sep-03 14:50  m  01 15 52.565420 -32 06 51.17213
 2018-Sep-03 14:51  m  01 15 52.621756 -32 06 53.03242
 2018-Sep-03 14:52  m  01 15 52.678140 -32 06 54.89215
 2018-Sep-03 14:53 Am  01 15 52.734574 -32 06 56.75132
 2018-Sep-03 14:54 Am  01 15 52.791057 -32 06 58.60993
 2018-Sep-03 14:55 Am  01 15 52.847591 -32 07 00.46798
 2018-Sep-03 14:56 Am  01 15 52.904175 -32 07 02.32548
 2018-Sep-03 14:57 Am  01 15 52.960810 -32 07 04.18242
 2018-Sep-03 14:58 Am  01 15 53.017497 -32 07 06.03881
 2018-Sep-03 14:59 Am  01 15 53.074234 -32 07 07.89464
